[{"CCSDS_OMM_VERS":"2.0","COMMENT":"GENERATED VIA SPACE-TRACK.ORG API","CREATION_DATE":"2023-04-01T19:28:43","ORIGINATOR":"18 SPCS","OBJECT_NAME":"KSF3-C","OBJECT_ID":"2023-001K","CENTER_NAME":"EARTH","REF_FRAME":"TEME","TIME_SYSTEM":"UTC","MEAN_ELEMENT_THEORY":"SGP4","EPOCH":"2023-04-01T14:29:29.218560","MEAN_MOTION":"15.14833431","ECCENTRICITY":"0.00092870","INCLINATION":"97.4864","RA_OF_ASC_NODE":"152.2622","ARG_OF_PERICENTER":"278.5929","MEAN_ANOMALY":"81.4250","EPHEMERIS_TYPE":"0","CLASSIFICATION_TYPE":"U","NORAD_CAT_ID":"55018","ELEMENT_SET_NO":"999","REV_AT_EPOCH":"1346","BSTAR":"0.00080370000000","MEAN_MOTION_DOT":"0.00014904","MEAN_MOTION_DDOT":"0.0000000000000","SEMIMAJOR_AXIS":"6899.621","PERIOD":"95.060","APOAPSIS":"527.894","PERIAPSIS":"515.079","OBJECT_TYPE":"PAYLOAD","RCS_SIZE":"MEDIUM","COUNTRY_CODE":"LUXE","LAUNCH_DATE":"2023-01-03","SITE":"AFETR","DECAY_DATE":null,"FILE":"3877270","GP_ID":"229247288","TLE_LINE0":"0 KSF3-C","TLE_LINE1":"1 55018U 23001K   23091.60381040  .00014904  00000-0  80370-3 0  9991","TLE_LINE2":"2 55018  97.4864 152.2622 0009287 278.5929  81.4250 15.14833431 13464"},{"CCSDS_OMM_VERS":"2.0","COMMENT":"GENERATED VIA SPACE-TRACK.ORG API","CREATION_DATE":"2023-04-02T02:53:51","ORIGINATOR":"18 SPCS","OBJECT_NAME":"KSF3-C","OBJECT_ID":"2023-001K","CENTER_NAME":"EARTH","REF_FRAME":"TEME","TIME_SYSTEM":"UTC","MEAN_ELEMENT_THEORY":"SGP4","EPOCH":"2023-04-01T17:39:43.624512","MEAN_MOTION":"15.14838203","ECCENTRICITY":"0.00093020","INCLINATION":"97.4864","RA_OF_ASC_NODE":"152.3922","ARG_OF_PERICENTER":"278.0820","MEAN_ANOMALY":"81.9357","EPHEMERIS_TYPE":"0","CLASSIFICATION_TYPE":"U","NORAD_CAT_ID":"55018","ELEMENT_SET_NO":"999","REV_AT_EPOCH":"1348","BSTAR":"0.00082464000000","MEAN_MOTION_DOT":"0.00015297","MEAN_MOTION_DDOT":"0.0000000000000","SEMIMAJOR_AXIS":"6899.607","PERIOD":"95.060","APOAPSIS":"527.890","PERIAPSIS":"515.054","OBJECT_TYPE":"PAYLOAD","RCS_SIZE":"MEDIUM","COUNTRY_CODE":"LUXE","LAUNCH_DATE":"2023-01-03","SITE":"AFETR","DECAY_DATE":null,"FILE":"3877516","GP_ID":"229280569","TLE_LINE0":"0 KSF3-C","TLE_LINE1":"1 55018U 23001K   23091.73592158  .00015297  00000-0  82464-3 0  9991","TLE_LINE2":"2 55018  97.4864 152.3922 0009302 278.0820  81.9357 15.14838203 13488"},{"CCSDS_OMM_VERS":"2.0","COMMENT":"GENERATED VIA SPACE-TRACK.ORG API","CREATION_DATE":"2023-04-02T21:37:57","ORIGINATOR":"18 SPCS","OBJECT_NAME":"KSF3-C","OBJECT_ID":"2023-001K","CENTER_NAME":"EARTH","REF_FRAME":"TEME","TIME_SYSTEM":"UTC","MEAN_ELEMENT_THEORY":"SGP4","EPOCH":"2023-04-02T14:16:16.485600","MEAN_MOTION":"15.14867474","ECCENTRICITY":"0.00093690","INCLINATION":"97.4862","RA_OF_ASC_NODE":"153.2376","ARG_OF_PERICENTER":"274.6735","MEAN_ANOMALY":"85.3427","EPHEMERIS_TYPE":"0","CLASSIFICATION_TYPE":"U","NORAD_CAT_ID":"55018","ELEMENT_SET_NO":"999","REV_AT_EPOCH":"1361","BSTAR":"0.00089597000000","MEAN_MOTION_DOT":"0.00016643","MEAN_MOTION_DDOT":"0.0000000000000","SEMIMAJOR_AXIS":"6899.518","PERIOD":"95.058","APOAPSIS":"527.847","PERIAPSIS":"514.919","OBJECT_TYPE":"PAYLOAD","RCS_SIZE":"MEDIUM","COUNTRY_CODE":"LUXE","LAUNCH_DATE":"2023-01-03","SITE":"AFETR","DECAY_DATE":null,"FILE":"3878126","GP_ID":"229321259","TLE_LINE0":"0 KSF3-C","TLE_LINE1":"1 55018U 23001K   23092.59463525  .00016643  00000-0  89597-3 0  9991","TLE_LINE2":"2 55018  97.4862 153.2376 0009369 274.6735  85.3427 15.14867474 13612"},{"CCSDS_OMM_VERS":"2.0","COMMENT":"GENERATED VIA SPACE-TRACK.ORG API","CREATION_DATE":"2023-04-02T16:46:16","ORIGINATOR":"18 SPCS","OBJECT_NAME":"KSF3-C","OBJECT_ID":"2023-001K","CENTER_NAME":"EARTH","REF_FRAME":"TEME","TIME_SYSTEM":"UTC","MEAN_ELEMENT_THEORY":"SGP4","EPOCH":"2023-04-02T14:16:16.485600","MEAN_MOTION":"15.14867474","ECCENTRICITY":"0.00093690","INCLINATION":"97.4862","RA_OF_ASC_NODE":"153.2376","ARG_OF_PERICENTER":"274.6735","MEAN_ANOMALY":"85.3427","EPHEMERIS_TYPE":"0","CLASSIFICATION_TYPE":"U","NORAD_CAT_ID":"55018","ELEMENT_SET_NO":"999","REV_AT_EPOCH":"1361","BSTAR":"0.00089597000000","MEAN_MOTION_DOT":"0.00016643","MEAN_MOTION_DDOT":"0.0000000000000","SEMIMAJOR_AXIS":"6899.518","PERIOD":"95.058","APOAPSIS":"527.847","PERIAPSIS":"514.919","OBJECT_TYPE":"PAYLOAD","RCS_SIZE":"MEDIUM","COUNTRY_CODE":"LUXE","LAUNCH_DATE":"2023-01-03","SITE":"AFETR","DECAY_DATE":null,"FILE":"3878058","GP_ID":"229293908","TLE_LINE0":"0 KSF3-C","TLE_LINE1":"1 55018U 23001K   23092.59463525  .00016643  00000-0  89597-3 0  9991","TLE_LINE2":"2 55018  97.4862 153.2376 0009369 274.6735  85.3427 15.14867474 13612"},{"CCSDS_OMM_VERS":"2.0","COMMENT":"GENERATED VIA SPACE-TRACK.ORG API","CREATION_DATE":"2023-04-03T03:40:52","ORIGINATOR":"18 SPCS","OBJECT_NAME":"KSF3-C","OBJECT_ID":"2023-001K","CENTER_NAME":"EARTH","REF_FRAME":"TEME","TIME_SYSTEM":"UTC","MEAN_ELEMENT_THEORY":"SGP4","EPOCH":"2023-04-02T17:26:30.651360","MEAN_MOTION":"15.14871950","ECCENTRICITY":"0.00093780","INCLINATION":"97.4861","RA_OF_ASC_NODE":"153.3676","ARG_OF_PERICENTER":"274.2237","MEAN_ANOMALY":"85.7923","EPHEMERIS_TYPE":"0","CLASSIFICATION_TYPE":"U","NORAD_CAT_ID":"55018","ELEMENT_SET_NO":"999","REV_AT_EPOCH":"1363","BSTAR":"0.00089839000000","MEAN_MOTION_DOT":"0.00016690","MEAN_MOTION_DDOT":"0.0000000000000","SEMIMAJOR_AXIS":"6899.504","PERIOD":"95.058","APOAPSIS":"527.840","PERIAPSIS":"514.899","OBJECT_TYPE":"PAYLOAD","RCS_SIZE":"MEDIUM","COUNTRY_CODE":"LUXE","LAUNCH_DATE":"2023-01-03","SITE":"AFETR","DECAY_DATE":null,"FILE":"3878419","GP_ID":"229354746","TLE_LINE0":"0 KSF3-C","TLE_LINE1":"1 55018U 23001K   23092.72674365  .00016690  00000-0  89839-3 0  9993","TLE_LINE2":"2 55018  97.4861 153.3676 0009378 274.2237  85.7923 15.14871950 13639"},{"CCSDS_OMM_VERS":"2.0","COMMENT":"GENERATED VIA SPACE-TRACK.ORG API","CREATION_DATE":"2023-04-03T19:04:41","ORIGINATOR":"18 SPCS","OBJECT_NAME":"KSF3-C","OBJECT_ID":"2023-001K","CENTER_NAME":"EARTH","REF_FRAME":"TEME","TIME_SYSTEM":"UTC","MEAN_ELEMENT_THEORY":"SGP4","EPOCH":"2023-04-03T09:17:40.999776","MEAN_MOTION":"15.14893217","ECCENTRICITY":"0.00094280","INCLINATION":"97.4862","RA_OF_ASC_NODE":"154.0179","ARG_OF_PERICENTER":"271.5571","MEAN_ANOMALY":"88.4581","EPHEMERIS_TYPE":"0","CLASSIFICATION_TYPE":"U","NORAD_CAT_ID":"55018","ELEMENT_SET_NO":"999","REV_AT_EPOCH":"1373","BSTAR":"0.00089593000000","MEAN_MOTION_DOT":"0.00016654","MEAN_MOTION_DDOT":"0.0000000000000","SEMIMAJOR_AXIS":"6899.440","PERIOD":"95.056","APOAPSIS":"527.810","PERIAPSIS":"514.800","OBJECT_TYPE":"PAYLOAD","RCS_SIZE":"MEDIUM","COUNTRY_CODE":"LUXE","LAUNCH_DATE":"2023-01-03","SITE":"AFETR","DECAY_DATE":null,"FILE":"3879059","GP_ID":"229394923","TLE_LINE0":"0 KSF3-C","TLE_LINE1":"1 55018U 23001K   23093.38728009  .00016654  00000-0  89593-3 0  9998","TLE_LINE2":"2 55018  97.4862 154.0179 0009428 271.5571  88.4581 15.14893217 13734"},{"CCSDS_OMM_VERS":"2.0","COMMENT":"GENERATED VIA SPACE-TRACK.ORG API","CREATION_DATE":"2023-04-04T17:46:53","ORIGINATOR":"18 SPCS","OBJECT_NAME":"KSF3-C","OBJECT_ID":"2023-001K","CENTER_NAME":"EARTH","REF_FRAME":"TEME","TIME_SYSTEM":"UTC","MEAN_ELEMENT_THEORY":"SGP4","EPOCH":"2023-04-04T02:43:57.500544","MEAN_MOTION":"15.14915891","ECCENTRICITY":"0.00094220","INCLINATION":"97.4864","RA_OF_ASC_NODE":"154.7333","ARG_OF_PERICENTER":"268.6749","MEAN_ANOMALY":"91.3404","EPHEMERIS_TYPE":"0","CLASSIFICATION_TYPE":"U","NORAD_CAT_ID":"55018","ELEMENT_SET_NO":"999","REV_AT_EPOCH":"1384","BSTAR":"0.00085489000000","MEAN_MOTION_DOT":"0.00015897","MEAN_MOTION_DDOT":"0.0000000000000","SEMIMAJOR_AXIS":"6899.371","PERIOD":"95.055","APOAPSIS":"527.737","PERIAPSIS":"514.735","OBJECT_TYPE":"PAYLOAD","RCS_SIZE":"MEDIUM","COUNTRY_CODE":"LUXE","LAUNCH_DATE":"2023-01-03","SITE":"AFETR","DECAY_DATE":null,"FILE":"3879974","GP_ID":"229468289","TLE_LINE0":"0 KSF3-C","TLE_LINE1":"1 55018U 23001K   23094.11385996  .00015897  00000-0  85489-3 0  9992","TLE_LINE2":"2 55018  97.4864 154.7333 0009422 268.6749  91.3404 15.14915891 13845"},{"CCSDS_OMM_VERS":"2.0","COMMENT":"GENERATED VIA SPACE-TRACK.ORG API","CREATION_DATE":"2023-04-04T08:46:13","ORIGINATOR":"18 SPCS","OBJECT_NAME":"KSF3-C","OBJECT_ID":"2023-001K","CENTER_NAME":"EARTH","REF_FRAME":"TEME","TIME_SYSTEM":"UTC","MEAN_ELEMENT_THEORY":"SGP4","EPOCH":"2023-04-04T02:43:57.500544","MEAN_MOTION":"15.14915891","ECCENTRICITY":"0.00094220","INCLINATION":"97.4864","RA_OF_ASC_NODE":"154.7333","ARG_OF_PERICENTER":"268.6749","MEAN_ANOMALY":"91.3404","EPHEMERIS_TYPE":"0","CLASSIFICATION_TYPE":"U","NORAD_CAT_ID":"55018","ELEMENT_SET_NO":"999","REV_AT_EPOCH":"1384","BSTAR":"0.00085489000000","MEAN_MOTION_DOT":"0.00015897","MEAN_MOTION_DDOT":"0.0000000000000","SEMIMAJOR_AXIS":"6899.371","PERIOD":"95.055","APOAPSIS":"527.737","PERIAPSIS":"514.735","OBJECT_TYPE":"PAYLOAD","RCS_SIZE":"MEDIUM","COUNTRY_CODE":"LUXE","LAUNCH_DATE":"2023-01-03","SITE":"AFETR","DECAY_DATE":null,"FILE":"3879606","GP_ID":"229433872","TLE_LINE0":"0 KSF3-C","TLE_LINE1":"1 55018U 23001K   23094.11385996  .00015897  00000-0  85489-3 0  9992","TLE_LINE2":"2 55018  97.4864 154.7333 0009422 268.6749  91.3404 15.14915891 13845"}]